{
  "SunFrameName": "MeanEclpJ2000",
  "DepartureCbName": "Earth",
  "ArrivalCbName": "2015 MB54",
  "DepartureInterval": "2028-10-01T00:00:00Z/2033-05-31T00:00:00Z",
  "ArrivalInterval": "2029-05-01T00:00:00Z/2033-08-31T00:00:00Z",
  "MinTofDays": 10,
  "DepartureStepDay": 5,
  "ArrivalStepDay": 5,
  "ArrivalElements": {
    "EpochMjdTdt": 60400,
    "SemimajorAxis": 1.3122999520233731,
    "Eccentricity": 0.241997768522398,
    "Inclination": 2.727034484966,
    "Raan": 153.0332604443149,
    "ArgOfPeriapsis": 46.8748756648789,
    "MeanAnomaly": 354.0919771479556,
    "PeriTimeMjdTdt": 59859.9155387934,
    "Q": 0.994726292001667
  }
}